{"type": "FeatureCollection", "features": [ {"type": "Feature", "properties": {"norad_id": 34327, "name": "COSMOS 2251 DEB", "group": "cosmos-2251-debris", "lat": 71.62703319097103, "lon": -128.23716767516424, "alt_km": 594.2041462781262, "timestamp": "2025-12-12T16:50:33.540483+00:00", "meta": {"OBJECT_NAME": "COSMOS 2251 DEB", "OBJECT_ID": "1993-036NZ", "EPOCH": "2025-12-11T23:25:20.654400", "MEAN_MOTION": 14.89153963, "ECCENTRICITY": 0.003277, "INCLINATION": 73.9936, "RA_OF_ASC_NODE": 173.4137, "ARG_OF_PERICENTER": 349.9103, "MEAN_ANOMALY": 160.9987, "EPHEMERIS_TYPE": 0, "CLASSIFICATION_TYPE": "U", "NORAD_CAT_ID": 34327, "ELEMENT_SET_NO": 999, "REV_AT_EPOCH": 89496, "BSTAR": 0.0018668, "MEAN_MOTION_DOT": 0.00017817, "MEAN_MOTION_DDOT": 0}, "tle": {"line1": "1 34327U 93036NZ  25345.97593350  .00017817  00000+0  18668-2 0  9994", "line2": "2 34327  73.9936 173.4137 0032770 349.9103 160.9987 14.89153963894967"}}, "geometry": {"type": "Point", "coordinates": [-128.23716767516424, 71.62703319097103]}}, {"type": "Feature", "properties": {"norad_id": 34340, "name": "COSMOS 2251 DEB", "group": "cosmos-2251-debris", "lat": -64.35125452350788, "lon": 164.52237522183674, "alt_km": 1173.5309903395828, "timestamp": "2025-12-12T16:50:33.540494+00:00", "meta": {"OBJECT_NAME": "COSMOS 2251 DEB", "OBJECT_ID": "1993-036PN", "EPOCH": "2025-12-12T07:30:08.360928", "MEAN_MOTION": 13.79567959, "ECCENTRICITY": 0.02825705, "INCLINATION": 74.0793, "RA_OF_ASC_NODE": 308.7004, "ARG_OF_PERICENTER": 56.5863, "MEAN_ANOMALY": 61.6831, "EPHEMERIS_TYPE": 0, "CLASSIFICATION_TYPE": "U", "NORAD_CAT_ID": 34340, "ELEMENT_SET_NO": 999, "REV_AT_EPOCH": 84262, "BSTAR": 0.0020466181, "MEAN_MOTION_DOT": 2.826e-05, "MEAN_MOTION_DDOT": 0}, "tle": {"line1": "1 34340U 93036PN  25346.31259677  .00002826  00000+0  20466-2 0  9992", "line2": "2 34340  74.0793 308.7004 0282570  56.5863  61.6831 13.79567959842623"}}, "geometry": {"type": "Point", "coordinates": [164.52237522183674, -64.35125452350788]}}, {"type": "Feature", "properties": {"norad_id": 34343, "name": "COSMOS 2251 DEB", "group": "cosmos-2251-debris", "lat": -46.66123642739744, "lon": 71.9494055814541, "alt_km": 659.5514244032447, "timestamp": "2025-12-12T16:50:33.540504+00:00", "meta": {"OBJECT_NAME": "COSMOS 2251 DEB", "OBJECT_ID": "1993-036PR", "EPOCH": "2025-12-12T07:33:32.552640", "MEAN_MOTION": 14.6943285, "ECCENTRICITY": 0.00233377, "INCLINATION": 74.0199, "RA_OF_ASC_NODE": 90.3778, "ARG_OF_PERICENTER": 5.5555, "MEAN_ANOMALY": 60.1729, "EPHEMERIS_TYPE": 0, "CLASSIFICATION_TYPE": "U", "NORAD_CAT_ID": 34343, "ELEMENT_SET_NO": 999, "REV_AT_EPOCH": 88724, "BSTAR": 0.002392469, "MEAN_MOTION_DOT": 0.00014222, "MEAN_MOTION_DDOT": 0}, "tle": {"line1": "1 34343U 93036PR  25346.31496010  .00014222  00000+0  23925-2 0  9995", "line2": "2 34343  74.0199  90.3778 0023337   5.5555  60.1729 14.69432850887242"}}, "geometry": {"type": "Point", "coordinates": [71.9494055814541, -46.66123642739744]}}, {"type": "Feature", "properties": {"norad_id": 34344, "name": "COSMOS 2251 DEB", "group": "cosmos-2251-debris", "lat": 57.06694751676443, "lon": 136.7495315217586, "alt_km": 897.1158194496747, "timestamp": "2025-12-12T16:50:33.540514+00:00", "meta": {"OBJECT_NAME": "COSMOS 2251 DEB", "OBJECT_ID": "1993-036PS", "EPOCH": "2025-12-11T19:14:49.841664", "MEAN_MOTION": 14.16396729, "ECCENTRICITY": 0.01558144, "INCLINATION": 73.9782, "RA_OF_ASC_NODE": 112.0214, "ARG_OF_PERICENTER": 296.3882, "MEAN_ANOMALY": 216.6791, "EPHEMERIS_TYPE": 0, "CLASSIFICATION_TYPE": "U", "NORAD_CAT_ID": 34344, "ELEMENT_SET_NO": 999, "REV_AT_EPOCH": 86083, "BSTAR": 0.0025281982, "MEAN_MOTION_DOT": 5.632e-05, "MEAN_MOTION_DDOT": 0}, "tle": {"line1": "1 34344U 93036PS  25345.80196576  .00005632  00000+0  25282-2 0  9996", "line2": "2 34344  73.9782 112.0214 0155814 296.3882 216.6791 14.16396729860834"}}, "geometry": {"type": "Point", "coordinates": [136.7495315217586, 57.06694751676443]}}, {"type": "Feature", "properties": {"norad_id": 34346, "name": "COSMOS 2251 DEB", "group": "cosmos-2251-debris", "lat": 4.02522474168776, "lon": 131.1552798012561, "alt_km": 788.328938862076, "timestamp": "2025-12-12T16:50:33.540525+00:00", "meta": {"OBJECT_NAME": "COSMOS 2251 DEB", "OBJECT_ID": "1993-036PU", "EPOCH": "2025-12-11T23:08:22.979040", "MEAN_MOTION": 13.99688406, "ECCENTRICITY": 0.0206215, "INCLINATION": 73.9954, "RA_OF_ASC_NODE": 313.5919, "ARG_OF_PERICENTER": 132.6799, "MEAN_ANOMALY": 286.03, "EPHEMERIS_TYPE": 0, "CLASSIFICATION_TYPE": "U", "NORAD_CAT_ID": 34346, "ELEMENT_SET_NO": 999, "REV_AT_EPOCH": 85399, "BSTAR": 0.0014434, "MEAN_MOTION_DOT": 2.514e-05, "MEAN_MOTION_DDOT": 0}, "tle": {"line1": "1 34346U 93036PU  25345.96415485  .00002514  00000+0  14434-2 0  9991", "line2": "2 34346  73.9954 313.5919 0206215 132.6799 286.0300 13.99688406853990"}}, "geometry": {"type": "Point", "coordinates": [131.1552798012561, 4.02522474168776]}}, {"type": "Feature", "properties": {"norad_id": 34383, "name": "COSMOS 2251 DEB", "group": "cosmos-2251-debris", "lat": -3.2471357875254876, "lon": -63.150604463130506, "alt_km": 541.222121299601, "timestamp": "2025-12-12T16:50:33.540536+00:00", "meta": {"OBJECT_NAME": "COSMOS 2251 DEB", "OBJECT_ID": "1993-036PY", "EPOCH": "2025-12-12T07:51:24.539040", "MEAN_MOTION": 15.08950534, "ECCENTRICITY": 0.00023212, "INCLINATION": 74.0222, "RA_OF_ASC_NODE": 298.5527, "ARG_OF_PERICENTER": 42.7371, "MEAN_ANOMALY": 80.986, "EPHEMERIS_TYPE": 0, "CLASSIFICATION_TYPE": "U", "NORAD_CAT_ID": 34383, "ELEMENT_SET_NO": 999, "REV_AT_EPOCH": 89107, "BSTAR": 0.0042291797, "MEAN_MOTION_DOT": 0.00067394, "MEAN_MOTION_DDOT": 0}, "tle": {"line1": "1 34383U 93036PY  25346.32736735  .00067394  00000+0  42292-2 0  9997", "line2": "2 34383  74.0222 298.5527 0002321  42.7371  80.9860 15.08950534891076"}}, "geometry": {"type": "Point", "coordinates": [-63.150604463130506, -3.2471357875254876]}}, {"type": "Feature", "properties": {"norad_id": 34387, "name": "COSMOS 2251 DEB", "group": "cosmos-2251-debris", "lat": -54.70547255280404, "lon": -171.8793494773296, "alt_km": 725.149230846404, "timestamp": "2025-12-12T16:50:33.540618+00:00", "meta": {"OBJECT_NAME": "COSMOS 2251 DEB", "OBJECT_ID": "1993-036QC", "EPOCH": "2025-12-12T02:52:38.968608", "MEAN_MOTION": 14.43818415, "ECCENTRICITY": 0.00387761, "INCLINATION": 74.0394, "RA_OF_ASC_NODE": 213.0478, "ARG_OF_PERICENTER": 310.1156, "MEAN_ANOMALY": 208.6562, "EPHEMERIS_TYPE": 0, "CLASSIFICATION_TYPE": "U", "NORAD_CAT_ID": 34387, "ELEMENT_SET_NO": 999, "REV_AT_EPOCH": 88172, "BSTAR": 0.0004343424, "MEAN_MOTION_DOT": 1.466e-05, "MEAN_MOTION_DDOT": 0}, "tle": {"line1": "1 34387U 93036QC  25346.11989547  .00001466  00000+0  43434-3 0  9997", "line2": "2 34387  74.0394 213.0478 0038776 310.1156 208.6562 14.43818415881721"}}, "geometry": {"type": "Point", "coordinates": [-171.8793494773296, -54.70547255280404]}}, {"type": "Feature", "properties": {"norad_id": 34388, "name": "COSMOS 2251 DEB", "group": "cosmos-2251-debris", "lat": -69.0077595315752, "lon": 174.94265518341442, "alt_km": 724.8805081841965, "timestamp": "2025-12-12T16:50:33.540630+00:00", "meta": {"OBJECT_NAME": "COSMOS 2251 DEB", "OBJECT_ID": "1993-036QD", "EPOCH": "2025-12-12T02:59:05.105760", "MEAN_MOTION": 14.49360724, "ECCENTRICITY": 0.00140652, "INCLINATION": 74.039, "RA_OF_ASC_NODE": 224.2589, "ARG_OF_PERICENTER": 272.5488, "MEAN_ANOMALY": 239.7098, "EPHEMERIS_TYPE": 0, "CLASSIFICATION_TYPE": "U", "NORAD_CAT_ID": 34388, "ELEMENT_SET_NO": 999, "REV_AT_EPOCH": 88146, "BSTAR": 0.0010928885, "MEAN_MOTION_DOT": 4.156e-05, "MEAN_MOTION_DDOT": 0}, "tle": {"line1": "1 34388U 93036QD  25346.12436465  .00004156  00000+0  10929-2 0  9996", "line2": "2 34388  74.0390 224.2589 0014065 272.5488 239.7098 14.49360724881460"}}, "geometry": {"type": "Point", "coordinates": [174.94265518341442, -69.0077595315752]}}, {"type": "Feature", "properties": {"norad_id": 34389, "name": "COSMOS 2251 DEB", "group": "cosmos-2251-debris", "lat": -50.16721073035497, "lon": -130.20807984309485, "alt_km": 748.078310579258, "timestamp": "2025-12-12T16:50:33.540641+00:00", "meta": {"OBJECT_NAME": "COSMOS 2251 DEB", "OBJECT_ID": "1993-036QE", "EPOCH": "2025-12-12T04:27:58.399776", "MEAN_MOTION": 14.4153149, "ECCENTRICITY": 0.00289048, "INCLINATION": 74.0194, "RA_OF_ASC_NODE": 250.8408, "ARG_OF_PERICENTER": 3.0064, "MEAN_ANOMALY": 149.248, "EPHEMERIS_TYPE": 0, "CLASSIFICATION_TYPE": "U", "NORAD_CAT_ID": 34389, "ELEMENT_SET_NO": 999, "REV_AT_EPOCH": 88004, "BSTAR": 0.00063766049, "MEAN_MOTION_DOT": 2.056e-05, "MEAN_MOTION_DDOT": 0}, "tle": {"line1": "1 34389U 93036QE  25346.18609259  .00002056  00000+0  63766-3 0  9991", "line2": "2 34389  74.0194 250.8408 0028904   3.0064 149.2480 14.41531490880047"}}, "geometry": {"type": "Point", "coordinates": [-130.20807984309485, -50.16721073035497]}}, {"type": "Feature", "properties": {"norad_id": 34396, "name": "COSMOS 2251 DEB", "group": "cosmos-2251-debris", "lat": -44.933750707970475, "lon": -39.29009205350524, "alt_km": 651.2950774580504, "timestamp": "2025-12-12T16:50:33.540652+00:00", "meta": {"OBJECT_NAME": "COSMOS 2251 DEB", "OBJECT_ID": "1993-036QM", "EPOCH": "2025-12-11T10:45:23.423328", "MEAN_MOTION": 14.74370157, "ECCENTRICITY": 0.00062889, "INCLINATION": 74.029, "RA_OF_ASC_NODE": 126.555, "ARG_OF_PERICENTER": 166.7674, "MEAN_ANOMALY": 249.2476, "EPHEMERIS_TYPE": 0, "CLASSIFICATION_TYPE": "U", "NORAD_CAT_ID": 34396, "ELEMENT_SET_NO": 999, "REV_AT_EPOCH": 88327, "BSTAR": 0.0044970445, "MEAN_MOTION_DOT": 0.00029929, "MEAN_MOTION_DDOT": 0}, "tle": {"line1": "1 34396U 93036QM  25345.44818777  .00029929  00000+0  44970-2 0  9997", "line2": "2 34396  74.0290 126.5550 0006288 166.7674 249.2476 14.74370157883275"}}, "geometry": {"type": "Point", "coordinates": [-39.29009205350524, -44.933750707970475]}}]}